[{"OBJECT_NAME":"LEMUR-2-PETERG","OBJECT_ID":"2017-042S","EPOCH":"2026-03-09T11:34:35.656032","MEAN_MOTION":15.29611459,"ECCENTRICITY":0.00037,"INCLINATION":97.398,"RA_OF_ASC_NODE":253.6596,"ARG_OF_PERICENTER":341.6938,"MEAN_ANOMALY":18.4169,"EPHEMERIS_TYPE":0,"CLASSIFICATION_TYPE":"U","NORAD_CAT_ID":42841,"ELEMENT_SET_NO":999,"REV_AT_EPOCH":47317,"BSTAR":0.00081076471,"MEAN_MOTION_DOT":0.0002324,"MEAN_MOTION_DDOT":0},{"OBJECT_NAME":"STARLINK-34598","OBJECT_ID":"2025-147E","EPOCH":"2026-03-09T18:01:00.744384","MEAN_MOTION":15.30228609,"ECCENTRICITY":0.0001372,"INCLINATION":53.1584,"RA_OF_ASC_NODE":242.2833,"ARG_OF_PERICENTER":72.3669,"MEAN_ANOMALY":287.7482,"EPHEMERIS_TYPE":0,"CLASSIFICATION_TYPE":"U","NORAD_CAT_ID":64759,"ELEMENT_SET_NO":999,"REV_AT_EPOCH":3871,"BSTAR":0.00068603204,"MEAN_MOTION_DOT":0.00020032,"MEAN_MOTION_DDOT":0}]
